{"type": "FeatureCollection", "features": [ {"type": "Feature", "properties": {"norad_id": 36402, "name": "COSMOS 2460 (732)", "group": "gnss", "lat": 16.260346310144755, "lon": -31.82250647145818, "alt_km": 19129.19080640345, "timestamp": "2025-12-18T23:35:49.300364+00:00", "meta": {"OBJECT_NAME": "COSMOS 2460 (732)", "OBJECT_ID": "2010-007C", "EPOCH": "2025-12-18T11:52:49.806624", "MEAN_MOTION": 2.13106267, "ECCENTRICITY": 0.00025873, "INCLINATION": 65.5263, "RA_OF_ASC_NODE": 320.5784, "ARG_OF_PERICENTER": 277.138, "MEAN_ANOMALY": 86.2141, "EPHEMERIS_TYPE": 0, "CLASSIFICATION_TYPE": "U", "NORAD_CAT_ID": 36402, "ELEMENT_SET_NO": 999, "REV_AT_EPOCH": 12288, "BSTAR": 0, "MEAN_MOTION_DOT": -6.2e-07, "MEAN_MOTION_DDOT": 0}, "tle": {"line1": "1 36402U 10007C   25352.49502091 -.00000062  00000+0  00000+0 0  9997", "line2": "2 36402  65.5263 320.5784 0002587 277.1380  86.2141  2.13106267122884"}}, "geometry": {"type": "Point", "coordinates": [-31.82250647145818, 16.260346310144755]}}, {"type": "Feature", "properties": {"norad_id": 36585, "name": "GPS BIIF-1  (PRN 25)", "group": "gnss", "lat": 8.518646152192682, "lon": -137.9840174159306, "alt_km": 19984.81100084051, "timestamp": "2025-12-18T23:35:49.300376+00:00", "meta": {"OBJECT_NAME": "GPS BIIF-1  (PRN 25)", "OBJECT_ID": "2010-022A", "EPOCH": "2025-12-18T05:21:58.347936", "MEAN_MOTION": 2.00553561, "ECCENTRICITY": 0.01263418, "INCLINATION": 54.2992, "RA_OF_ASC_NODE": 215.8527, "ARG_OF_PERICENTER": 65.143, "MEAN_ANOMALY": 118.1807, "EPHEMERIS_TYPE": 0, "CLASSIFICATION_TYPE": "U", "NORAD_CAT_ID": 36585, "ELEMENT_SET_NO": 999, "REV_AT_EPOCH": 11396, "BSTAR": 0, "MEAN_MOTION_DOT": 8.3e-07, "MEAN_MOTION_DDOT": 0}, "tle": {"line1": "1 36585U 10022A   25352.22359199  .00000083  00000+0  00000+0 0  9998", "line2": "2 36585  54.2992 215.8527 0126341  65.1430 118.1807  2.00553561113969"}}, "geometry": {"type": "Point", "coordinates": [-137.9840174159306, 8.518646152192682]}}, {"type": "Feature", "properties": {"norad_id": 36828, "name": "BEIDOU-2 IGSO-1 (C06)", "group": "gnss", "lat": 20.249726031689537, "lon": 179.99533247157416, "alt_km": 35995.59421325038, "timestamp": "2025-12-18T23:35:49.300388+00:00", "meta": {"OBJECT_NAME": "BEIDOU-2 IGSO-1 (C06)", "OBJECT_ID": "2010-036A", "EPOCH": "2025-12-14T21:38:21.623424", "MEAN_MOTION": 1.00275796, "ECCENTRICITY": 0.00512569, "INCLINATION": 54.2866, "RA_OF_ASC_NODE": 164.6279, "ARG_OF_PERICENTER": 215.8888, "MEAN_ANOMALY": 135.7931, "EPHEMERIS_TYPE": 0, "CLASSIFICATION_TYPE": "U", "NORAD_CAT_ID": 36828, "ELEMENT_SET_NO": 999, "REV_AT_EPOCH": 5624, "BSTAR": 0, "MEAN_MOTION_DOT": -2.4e-07, "MEAN_MOTION_DDOT": 0}, "tle": {"line1": "1 36828U 10036A   25348.90163916 -.00000024  00000+0  00000+0 0  9999", "line2": "2 36828  54.2866 164.6279 0051256 215.8888 135.7931  1.00275796 56247"}}, "geometry": {"type": "Point", "coordinates": [179.99533247157416, 20.249726031689537]}}, {"type": "Feature", "properties": {"norad_id": 37210, "name": "BEIDOU-2 G4 (C04)", "group": "gnss", "lat": 0.42557318394656357, "lon": -118.16103246513075, "alt_km": 35744.43692659281, "timestamp": "2025-12-18T23:35:49.300401+00:00", "meta": {"OBJECT_NAME": "BEIDOU-2 G4 (C04)", "OBJECT_ID": "2010-057A", "EPOCH": "2025-12-18T14:03:22.302720", "MEAN_MOTION": 1.00272055, "ECCENTRICITY": 0.00104599, "INCLINATION": 3.1986, "RA_OF_ASC_NODE": 69.9171, "ARG_OF_PERICENTER": 192.4172, "MEAN_ANOMALY": 196.0359, "EPHEMERIS_TYPE": 0, "CLASSIFICATION_TYPE": "U", "NORAD_CAT_ID": 37210, "ELEMENT_SET_NO": 999, "REV_AT_EPOCH": 5548, "BSTAR": 0, "MEAN_MOTION_DOT": -8.9e-07, "MEAN_MOTION_DDOT": 0}, "tle": {"line1": "1 37210U 10057A   25352.58567480 -.00000089  00000+0  00000+0 0  9992", "line2": "2 37210   3.1986  69.9171 0010459 192.4172 196.0359  1.00272055 55487"}}, "geometry": {"type": "Point", "coordinates": [-118.16103246513075, 0.42557318394656357]}}, {"type": "Feature", "properties": {"norad_id": 37256, "name": "BEIDOU-2 IGSO-2 (C07)", "group": "gnss", "lat": -47.57045556106744, "lon": -166.9731422216731, "alt_km": 35685.26113389883, "timestamp": "2025-12-18T23:35:49.300414+00:00", "meta": {"OBJECT_NAME": "BEIDOU-2 IGSO-2 (C07)", "OBJECT_ID": "2010-068A", "EPOCH": "2025-12-18T14:56:34.329984", "MEAN_MOTION": 1.00284828, "ECCENTRICITY": 0.00483723, "INCLINATION": 47.8753, "RA_OF_ASC_NODE": 274.0762, "ARG_OF_PERICENTER": 216.3496, "MEAN_ANOMALY": 289.0532, "EPHEMERIS_TYPE": 0, "CLASSIFICATION_TYPE": "U", "NORAD_CAT_ID": 37256, "ELEMENT_SET_NO": 999, "REV_AT_EPOCH": 5498, "BSTAR": 0, "MEAN_MOTION_DOT": -2e-06, "MEAN_MOTION_DDOT": 0}, "tle": {"line1": "1 37256U 10068A   25352.62261956 -.00000200  00000+0  00000+0 0  9993", "line2": "2 37256  47.8753 274.0762 0048372 216.3496 289.0532  1.00284828 54980"}}, "geometry": {"type": "Point", "coordinates": [-166.9731422216731, -47.57045556106744]}}, {"type": "Feature", "properties": {"norad_id": 37384, "name": "BEIDOU-2 IGSO-3 (C08)", "group": "gnss", "lat": 28.781839279261025, "lon": -154.96425201958453, "alt_km": 35671.43143071602, "timestamp": "2025-12-18T23:35:49.300426+00:00", "meta": {"OBJECT_NAME": "BEIDOU-2 IGSO-3 (C08)", "OBJECT_ID": "2011-013A", "EPOCH": "2025-12-18T16:17:49.029216", "MEAN_MOTION": 1.00269421, "ECCENTRICITY": 0.00353461, "INCLINATION": 62.1512, "RA_OF_ASC_NODE": 41.8596, "ARG_OF_PERICENTER": 187.8899, "MEAN_ANOMALY": 209.6604, "EPHEMERIS_TYPE": 0, "CLASSIFICATION_TYPE": "U", "NORAD_CAT_ID": 37384, "ELEMENT_SET_NO": 999, "REV_AT_EPOCH": 5385, "BSTAR": 0, "MEAN_MOTION_DOT": -1.73e-06, "MEAN_MOTION_DDOT": 0}, "tle": {"line1": "1 37384U 11013A   25352.67903969 -.00000173  00000+0  00000+0 0  9997", "line2": "2 37384  62.1512  41.8596 0035346 187.8899 209.6604  1.00269421 53851"}}, "geometry": {"type": "Point", "coordinates": [-154.96425201958453, 28.781839279261025]}}, {"type": "Feature", "properties": {"norad_id": 37605, "name": "GSAT-8 (GAGAN/PRN 127)", "group": "gnss", "lat": 1.3396434905133856, "lon": 136.7861118711175, "alt_km": 35810.66588372961, "timestamp": "2025-12-18T23:35:49.300437+00:00", "meta": {"OBJECT_NAME": "GSAT-8 (GAGAN/PRN 127)", "OBJECT_ID": "2011-022A", "EPOCH": "2025-12-18T13:33:25.172352", "MEAN_MOTION": 1.00271968, "ECCENTRICITY": 0.00086672, "INCLINATION": 1.664, "RA_OF_ASC_NODE": 84.1342, "ARG_OF_PERICENTER": 185.3054, "MEAN_ANOMALY": 76.4271, "EPHEMERIS_TYPE": 0, "CLASSIFICATION_TYPE": "U", "NORAD_CAT_ID": 37605, "ELEMENT_SET_NO": 999, "REV_AT_EPOCH": 5140, "BSTAR": 0, "MEAN_MOTION_DOT": 1.08e-06, "MEAN_MOTION_DDOT": 0}, "tle": {"line1": "1 37605U 11022A   25352.56487468  .00000108  00000+0  00000+0 0  9999", "line2": "2 37605   1.6640  84.1342 0008667 185.3054  76.4271  1.00271968 51406"}}, "geometry": {"type": "Point", "coordinates": [136.7861118711175, 1.3396434905133856]}}, {"type": "Feature", "properties": {"norad_id": 37763, "name": "BEIDOU-2 IGSO-4 (C09)", "group": "gnss", "lat": 8.285542416923546, "lon": 173.2392981355617, "alt_km": 36260.590076553475, "timestamp": "2025-12-18T23:35:49.300450+00:00", "meta": {"OBJECT_NAME": "BEIDOU-2 IGSO-4 (C09)", "OBJECT_ID": "2011-038A", "EPOCH": "2025-12-17T23:29:21.564384", "MEAN_MOTION": 1.00281312, "ECCENTRICITY": 0.01493143, "INCLINATION": 54.5836, "RA_OF_ASC_NODE": 167.2999, "ARG_OF_PERICENTER": 230.2426, "MEAN_ANOMALY": 136.1954, "EPHEMERIS_TYPE": 0, "CLASSIFICATION_TYPE": "U", "NORAD_CAT_ID": 37763, "ELEMENT_SET_NO": 999, "REV_AT_EPOCH": 5283, "BSTAR": 0, "MEAN_MOTION_DOT": 6.5e-07, "MEAN_MOTION_DDOT": 0}, "tle": {"line1": "1 37763U 11038A   25351.97872181  .00000065  00000+0  00000+0 0  9997", "line2": "2 37763  54.5836 167.2999 0149314 230.2426 136.1954  1.00281312 52838"}}, "geometry": {"type": "Point", "coordinates": [173.2392981355617, 8.285542416923546]}}, {"type": "Feature", "properties": {"norad_id": 37846, "name": "GSAT0101 (GALILEO-PFM)", "group": "gnss", "lat": 37.938534791284276, "lon": 136.26775346137114, "alt_km": 23226.632737619344, "timestamp": "2025-12-18T23:35:49.300462+00:00", "meta": {"OBJECT_NAME": "GSAT0101 (GALILEO-PFM)", "OBJECT_ID": "2011-060A", "EPOCH": "2025-12-18T04:19:25.153536", "MEAN_MOTION": 1.70475837, "ECCENTRICITY": 0.00031306, "INCLINATION": 57.0515, "RA_OF_ASC_NODE": 346.6722, "ARG_OF_PERICENTER": 318.0107, "MEAN_ANOMALY": 41.9798, "EPHEMERIS_TYPE": 0, "CLASSIFICATION_TYPE": "U", "NORAD_CAT_ID": 37846, "ELEMENT_SET_NO": 999, "REV_AT_EPOCH": 8803, "BSTAR": 0, "MEAN_MOTION_DOT": -7.6e-07, "MEAN_MOTION_DDOT": 0}, "tle": {"line1": "1 37846U 11060A   25352.18015224 -.00000076  00000+0  00000+0 0  9998", "line2": "2 37846  57.0515 346.6722 0003130 318.0107  41.9798  1.70475837 88039"}}, "geometry": {"type": "Point", "coordinates": [136.26775346137114, 37.938534791284276]}}, {"type": "Feature", "properties": {"norad_id": 37847, "name": "GSAT0102 (GALILEO-FM2)", "group": "gnss", "lat": 1.4193305351740149, "lon": 165.7238506604484, "alt_km": 23232.468772305543, "timestamp": "2025-12-18T23:35:49.300475+00:00", "meta": {"OBJECT_NAME": "GSAT0102 (GALILEO-FM2)", "OBJECT_ID": "2011-060B", "EPOCH": "2025-12-18T09:18:10.933920", "MEAN_MOTION": 1.7047603, "ECCENTRICITY": 0.0005099, "INCLINATION": 57.0522, "RA_OF_ASC_NODE": 346.6671, "ARG_OF_PERICENTER": 311.9548, "MEAN_ANOMALY": 220.8374, "EPHEMERIS_TYPE": 0, "CLASSIFICATION_TYPE": "U", "NORAD_CAT_ID": 37847, "ELEMENT_SET_NO": 999, "REV_AT_EPOCH": 8804, "BSTAR": 0, "MEAN_MOTION_DOT": -7.6e-07, "MEAN_MOTION_DDOT": 0}, "tle": {"line1": "1 37847U 11060B   25352.38762655 -.00000076  00000+0  00000+0 0  9998", "line2": "2 37847  57.0522 346.6671 0005099 311.9548 220.8374  1.70476030 88043"}}, "geometry": {"type": "Point", "coordinates": [165.7238506604484, 1.4193305351740149]}}]}